{
  "type": "Feature",
  "properties": {
    "waypoints": [
      {
        "name": "Seattle",
        "lat": 47.6062,
        "lng": -122.3321
      },
      {
        "name": "Anchorage",
        "lat": 61.2181,
        "lng": -149.9003
      },
      {
        "name": "Nome",
        "lat": 64.5011,
        "lng": -165.4064
      },
      {
        "name": "Anadyr",
        "lat": 64.7337,
        "lng": 177.5103
      },
      {
        "name": "Magadan",
        "lat": 59.5638,
        "lng": 150.8035
      },
      {
        "name": "Harbin",
        "lat": 45.8038,
        "lng": 126.5349
      },
      {
        "name": "Beijing",
        "lat": 39.9042,
        "lng": 116.4074
      },
      {
        "name": "Xian",
        "lat": 34.3416,
        "lng": 108.9398
      },
      {
        "name": "Chengdu",
        "lat": 30.5728,
        "lng": 104.0668
      },
      {
        "name": "Dali",
        "lat": 25.6925,
        "lng": 100.1619
      }
    ],
    "total_km": 10931.66,
    "generated_at": "2026-04-23T03:41:17.225Z"
  },
  "geometry": {
    "type": "LineString",
    "coordinates": [
      [
        -122.3321,
        47.6062
      ],
      [
        -122.62853225806451,
        47.752564516129034
      ],
      [
        -122.92496451612902,
        47.89892903225807
      ],
      [
        -123.22139677419355,
        48.0452935483871
      ],
      [
        -123.51782903225806,
        48.19165806451613
      ],
      [
        -123.81426129032258,
        48.33802258064516
      ],
      [
        -124.11069354838709,
        48.48438709677419
      ],
      [
        -124.4071258064516,
        48.630751612903225
      ],
      [
        -124.70355806451613,
        48.77711612903226
      ],
      [
        -124.99999032258064,
        48.92348064516129
      ],
      [
        -125.29642258064516,
        49.069845161290324
      ],
      [
        -125.59285483870967,
        49.21620967741936
      ],
      [
        -125.88928709677418,
        49.36257419354839
      ],
      [
        -126.18571935483871,
        49.50893870967742
      ],
      [
        -126.48215161290322,
        49.65530322580645
      ],
      [
        -126.77858387096774,
        49.80166774193548
      ],
      [
        -127.07501612903225,
        49.948032258064515
      ],
      [
        -127.37144838709676,
        50.09439677419355
      ],
      [
        -127.66788064516129,
        50.24076129032258
      ],
      [
        -127.9643129032258,
        50.387125806451614
      ],
      [
        -128.26074516129032,
        50.53349032258065
      ],
      [
        -128.55717741935484,
        50.67985483870968
      ],
      [
        -128.85360967741934,
        50.82621935483871
      ],
      [
        -129.15004193548387,
        50.972583870967746
      ],
      [
        -129.44647419354837,
        51.11894838709677
      ],
      [
        -129.7429064516129,
        51.265312903225805
      ],
      [
        -130.03933870967742,
        51.41167741935484
      ],
      [
        -130.33577096774192,
        51.55804193548387
      ],
      [
        -130.63220322580645,
        51.704406451612904
      ],
      [
        -130.92863548387095,
        51.85077096774194
      ],
      [
        -131.22506774193548,
        51.99713548387097
      ],
      [
        -131.5215,
        52.1435
      ],
      [
        -131.8179322580645,
        52.289864516129036
      ],
      [
        -132.11436451612903,
        52.43622903225807
      ],
      [
        -132.41079677419356,
        52.582593548387095
      ],
      [
        -132.70722903225806,
        52.72895806451613
      ],
      [
        -133.00366129032258,
        52.87532258064516
      ],
      [
        -133.30009354838708,
        53.021687096774194
      ],
      [
        -133.5965258064516,
        53.16805161290323
      ],
      [
        -133.8929580645161,
        53.31441612903226
      ],
      [
        -134.18939032258064,
        53.46078064516129
      ],
      [
        -134.48582258064516,
        53.607145161290326
      ],
      [
        -134.78225483870966,
        53.75350967741936
      ],
      [
        -135.0786870967742,
        53.899874193548385
      ],
      [
        -135.37511935483872,
        54.04623870967742
      ],
      [
        -135.67155161290322,
        54.19260322580645
      ],
      [
        -135.96798387096774,
        54.338967741935484
      ],
      [
        -136.26441612903224,
        54.48533225806452
      ],
      [
        -136.56084838709677,
        54.63169677419355
      ],
      [
        -136.85728064516127,
        54.77806129032258
      ],
      [
        -137.1537129032258,
        54.92442580645161
      ],
      [
        -137.45014516129032,
        55.07079032258064
      ],
      [
        -137.74657741935482,
        55.217154838709675
      ],
      [
        -138.04300967741935,
        55.36351935483871
      ],
      [
        -138.33944193548388,
        55.50988387096774
      ],
      [
        -138.63587419354837,
        55.656248387096774
      ],
      [
        -138.9323064516129,
        55.80261290322581
      ],
      [
        -139.2287387096774,
        55.94897741935484
      ],
      [
        -139.52517096774193,
        56.09534193548387
      ],
      [
        -139.82160322580643,
        56.241706451612906
      ],
      [
        -140.11803548387095,
        56.38807096774194
      ],
      [
        -140.41446774193548,
        56.534435483870965
      ],
      [
        -140.71089999999998,
        56.6808
      ],
      [
        -141.0073322580645,
        56.82716451612903
      ],
      [
        -141.30376451612904,
        56.973529032258064
      ],
      [
        -141.60019677419353,
        57.1198935483871
      ],
      [
        -141.89662903225806,
        57.26625806451613
      ],
      [
        -142.19306129032256,
        57.41262258064516
      ],
      [
        -142.4894935483871,
        57.558987096774196
      ],
      [
        -142.7859258064516,
        57.70535161290323
      ],
      [
        -143.08235806451611,
        57.851716129032255
      ],
      [
        -143.37879032258064,
        57.99808064516129
      ],
      [
        -143.67522258064514,
        58.14444516129032
      ],
      [
        -143.97165483870967,
        58.290809677419354
      ],
      [
        -144.2680870967742,
        58.43717419354839
      ],
      [
        -144.5645193548387,
        58.58353870967742
      ],
      [
        -144.86095161290322,
        58.72990322580645
      ],
      [
        -145.15738387096772,
        58.876267741935486
      ],
      [
        -145.45381612903225,
        59.02263225806452
      ],
      [
        -145.75024838709678,
        59.168996774193545
      ],
      [
        -146.04668064516127,
        59.315361290322585
      ],
      [
        -146.3431129032258,
        59.46172580645161
      ],
      [
        -146.6395451612903,
        59.608090322580644
      ],
      [
        -146.93597741935483,
        59.75445483870968
      ],
      [
        -147.23240967741935,
        59.90081935483871
      ],
      [
        -147.52884193548385,
        60.04718387096774
      ],
      [
        -147.82527419354838,
        60.193548387096776
      ],
      [
        -148.12170645161288,
        60.33991290322581
      ],
      [
        -148.4181387096774,
        60.48627741935484
      ],
      [
        -148.71457096774193,
        60.632641935483875
      ],
      [
        -149.01100322580643,
        60.7790064516129
      ],
      [
        -149.30743548387096,
        60.925370967741934
      ],
      [
        -149.60386774193546,
        61.07173548387097
      ],
      [
        -149.9003,
        61.2181
      ],
      [
        -150.34333142857142,
        61.3119
      ],
      [
        -150.78636285714285,
        61.405699999999996
      ],
      [
        -151.22939428571428,
        61.4995
      ],
      [
        -151.6724257142857,
        61.5933
      ],
      [
        -152.11545714285714,
        61.6871
      ],
      [
        -152.55848857142857,
        61.780899999999995
      ],
      [
        -153.00152,
        61.8747
      ],
      [
        -153.44455142857143,
        61.9685
      ],
      [
        -153.88758285714283,
        62.0623
      ],
      [
        -154.33061428571426,
        62.156099999999995
      ],
      [
        -154.7736457142857,
        62.2499
      ],
      [
        -155.21667714285712,
        62.3437
      ],
      [
        -155.65970857142855,
        62.4375
      ],
      [
        -156.10273999999998,
        62.531299999999995
      ],
      [
        -156.5457714285714,
        62.625099999999996
      ],
      [
        -156.98880285714284,
        62.7189
      ],
      [
        -157.43183428571427,
        62.8127
      ],
      [
        -157.8748657142857,
        62.906499999999994
      ],
      [
        -158.31789714285713,
        63.000299999999996
      ],
      [
        -158.76092857142856,
        63.0941
      ],
      [
        -159.20396,
        63.1879
      ],
      [
        -159.64699142857143,
        63.281699999999994
      ],
      [
        -160.09002285714286,
        63.375499999999995
      ],
      [
        -160.5330542857143,
        63.4693
      ],
      [
        -160.97608571428572,
        63.5631
      ],
      [
        -161.41911714285715,
        63.65689999999999
      ],
      [
        -161.86214857142858,
        63.750699999999995
      ],
      [
        -162.30517999999998,
        63.8445
      ],
      [
        -162.7482114285714,
        63.9383
      ],
      [
        -163.19124285714284,
        64.0321
      ],
      [
        -163.63427428571427,
        64.1259
      ],
      [
        -164.0773057142857,
        64.21969999999999
      ],
      [
        -164.52033714285713,
        64.31349999999999
      ],
      [
        -164.96336857142856,
        64.40729999999999
      ],
      [
        -165.4064,
        64.5011
      ],
      [
        -155.01498484848483,
        64.50814848484848
      ],
      [
        -144.6235696969697,
        64.51519696969696
      ],
      [
        -134.23215454545453,
        64.52224545454546
      ],
      [
        -123.84073939393939,
        64.52929393939394
      ],
      [
        -113.44932424242424,
        64.53634242424242
      ],
      [
        -103.05790909090908,
        64.5433909090909
      ],
      [
        -92.66649393939393,
        64.55043939393939
      ],
      [
        -82.27507878787878,
        64.55748787878787
      ],
      [
        -71.88366363636364,
        64.56453636363636
      ],
      [
        -61.492248484848474,
        64.57158484848485
      ],
      [
        -51.10083333333333,
        64.57863333333333
      ],
      [
        -40.709418181818165,
        64.58568181818181
      ],
      [
        -30.318003030303032,
        64.5927303030303
      ],
      [
        -19.92658787878787,
        64.59977878787879
      ],
      [
        -9.535172727272737,
        64.60682727272727
      ],
      [
        0.8562424242424242,
        64.61387575757576
      ],
      [
        11.247657575757586,
        64.62092424242424
      ],
      [
        21.63907272727272,
        64.62797272727272
      ],
      [
        32.03048787878791,
        64.6350212121212
      ],
      [
        42.42190303030304,
        64.6420696969697
      ],
      [
        52.813318181818175,
        64.64911818181818
      ],
      [
        63.20473333333334,
        64.65616666666666
      ],
      [
        73.5961484848485,
        64.66321515151515
      ],
      [
        83.98756363636366,
        64.67026363636363
      ],
      [
        94.37897878787876,
        64.67731212121213
      ],
      [
        104.77039393939393,
        64.68436060606061
      ],
      [
        115.16180909090909,
        64.69140909090909
      ],
      [
        125.55322424242425,
        64.69845757575757
      ],
      [
        135.9446393939394,
        64.70550606060606
      ],
      [
        146.33605454545452,
        64.71255454545454
      ],
      [
        156.72746969696973,
        64.71960303030303
      ],
      [
        167.11888484848484,
        64.72665151515152
      ],
      [
        177.5103,
        64.7337
      ],
      [
        177.06518666666668,
        64.647535
      ],
      [
        176.62007333333332,
        64.56137
      ],
      [
        176.17496,
        64.475205
      ],
      [
        175.72984666666667,
        64.38904
      ],
      [
        175.28473333333335,
        64.302875
      ],
      [
        174.83962,
        64.21671
      ],
      [
        174.39450666666667,
        64.130545
      ],
      [
        173.94939333333335,
        64.04438
      ],
      [
        173.50428,
        63.958214999999996
      ],
      [
        173.05916666666667,
        63.87205
      ],
      [
        172.61405333333335,
        63.785885
      ],
      [
        172.16894,
        63.69972
      ],
      [
        171.72382666666667,
        63.613555
      ],
      [
        171.27871333333334,
        63.52739
      ],
      [
        170.8336,
        63.441225
      ],
      [
        170.38848666666667,
        63.35506
      ],
      [
        169.94337333333334,
        63.268895
      ],
      [
        169.49826000000002,
        63.18273
      ],
      [
        169.05314666666666,
        63.096565
      ],
      [
        168.60803333333334,
        63.0104
      ],
      [
        168.16292,
        62.924235
      ],
      [
        167.71780666666666,
        62.83807
      ],
      [
        167.27269333333334,
        62.751905
      ],
      [
        166.82758,
        62.66574
      ],
      [
        166.3824666666667,
        62.579575
      ],
      [
        165.93735333333333,
        62.49341
      ],
      [
        165.49224,
        62.407245
      ],
      [
        165.04712666666668,
        62.32108
      ],
      [
        164.60201333333333,
        62.234915
      ],
      [
        164.1569,
        62.14875
      ],
      [
        163.71178666666668,
        62.062585
      ],
      [
        163.26667333333333,
        61.97642
      ],
      [
        162.82156,
        61.890254999999996
      ],
      [
        162.37644666666668,
        61.80409
      ],
      [
        161.93133333333333,
        61.717925
      ],
      [
        161.48622,
        61.63176
      ],
      [
        161.04110666666668,
        61.545595
      ],
      [
        160.59599333333335,
        61.45943
      ],
      [
        160.15088,
        61.373265
      ],
      [
        159.70576666666668,
        61.2871
      ],
      [
        159.26065333333335,
        61.200935
      ],
      [
        158.81554,
        61.11477
      ],
      [
        158.37042666666667,
        61.028605
      ],
      [
        157.92531333333335,
        60.94244
      ],
      [
        157.48020000000002,
        60.856275
      ],
      [
        157.03508666666667,
        60.77011
      ],
      [
        156.58997333333335,
        60.683945
      ],
      [
        156.14486,
        60.59778
      ],
      [
        155.69974666666667,
        60.511615
      ],
      [
        155.25463333333335,
        60.42545
      ],
      [
        154.80952000000002,
        60.339285000000004
      ],
      [
        154.36440666666667,
        60.25312
      ],
      [
        153.91929333333334,
        60.166955
      ],
      [
        153.47418000000002,
        60.08079
      ],
      [
        153.02906666666667,
        59.994625
      ],
      [
        152.58395333333334,
        59.90846
      ],
      [
        152.13884000000002,
        59.822295
      ],
      [
        151.6937266666667,
        59.73613
      ],
      [
        151.24861333333334,
        59.649965
      ],
      [
        150.8035,
        59.5638
      ],
      [
        150.5308191011236,
        59.40919325842697
      ],
      [
        150.2581382022472,
        59.254586516853934
      ],
      [
        149.9854573033708,
        59.0999797752809
      ],
      [
        149.7127764044944,
        58.94537303370787
      ],
      [
        149.440095505618,
        58.79076629213483
      ],
      [
        149.16741460674157,
        58.6361595505618
      ],
      [
        148.89473370786519,
        58.481552808988766
      ],
      [
        148.62205280898877,
        58.32694606741573
      ],
      [
        148.34937191011238,
        58.1723393258427
      ],
      [
        148.07669101123597,
        58.017732584269666
      ],
      [
        147.80401011235955,
        57.86312584269663
      ],
      [
        147.53132921348316,
        57.7085191011236
      ],
      [
        147.25864831460675,
        57.553912359550566
      ],
      [
        146.98596741573036,
        57.39930561797753
      ],
      [
        146.71328651685394,
        57.2446988764045
      ],
      [
        146.44060561797752,
        57.090092134831465
      ],
      [
        146.16792471910114,
        56.935485393258425
      ],
      [
        145.89524382022472,
        56.78087865168539
      ],
      [
        145.62256292134833,
        56.62627191011236
      ],
      [
        145.34988202247192,
        56.471665168539324
      ],
      [
        145.0772011235955,
        56.31705842696629
      ],
      [
        144.8045202247191,
        56.16245168539326
      ],
      [
        144.5318393258427,
        56.007844943820224
      ],
      [
        144.2591584269663,
        55.85323820224719
      ],
      [
        143.9864775280899,
        55.69863146067416
      ],
      [
        143.7137966292135,
        55.544024719101124
      ],
      [
        143.4411157303371,
        55.38941797752809
      ],
      [
        143.16843483146067,
        55.23481123595506
      ],
      [
        142.89575393258428,
        55.08020449438202
      ],
      [
        142.62307303370787,
        54.92559775280899
      ],
      [
        142.35039213483145,
        54.77099101123596
      ],
      [
        142.07771123595506,
        54.61638426966292
      ],
      [
        141.80503033707865,
        54.46177752808989
      ],
      [
        141.53234943820226,
        54.307170786516856
      ],
      [
        141.25966853932584,
        54.15256404494382
      ],
      [
        140.98698764044946,
        53.99795730337079
      ],
      [
        140.71430674157304,
        53.843350561797756
      ],
      [
        140.44162584269662,
        53.68874382022472
      ],
      [
        140.16894494382024,
        53.53413707865169
      ],
      [
        139.89626404494382,
        53.379530337078656
      ],
      [
        139.62358314606743,
        53.22492359550562
      ],
      [
        139.35090224719102,
        53.07031685393259
      ],
      [
        139.0782213483146,
        52.91571011235955
      ],
      [
        138.8055404494382,
        52.761103370786515
      ],
      [
        138.5328595505618,
        52.60649662921348
      ],
      [
        138.2601786516854,
        52.45188988764045
      ],
      [
        137.987497752809,
        52.297283146067414
      ],
      [
        137.71481685393258,
        52.14267640449438
      ],
      [
        137.4421359550562,
        51.98806966292135
      ],
      [
        137.16945505617977,
        51.833462921348314
      ],
      [
        136.89677415730338,
        51.67885617977528
      ],
      [
        136.62409325842697,
        51.52424943820225
      ],
      [
        136.35141235955055,
        51.369642696629214
      ],
      [
        136.07873146067416,
        51.21503595505618
      ],
      [
        135.80605056179775,
        51.06042921348315
      ],
      [
        135.53336966292136,
        50.90582247191011
      ],
      [
        135.26068876404494,
        50.75121573033708
      ],
      [
        134.98800786516853,
        50.596608988764046
      ],
      [
        134.71532696629214,
        50.44200224719101
      ],
      [
        134.44264606741572,
        50.28739550561798
      ],
      [
        134.16996516853933,
        50.132788764044946
      ],
      [
        133.89728426966292,
        49.97818202247191
      ],
      [
        133.62460337078653,
        49.82357528089888
      ],
      [
        133.35192247191011,
        49.668968539325846
      ],
      [
        133.0792415730337,
        49.51436179775281
      ],
      [
        132.8065606741573,
        49.35975505617978
      ],
      [
        132.5338797752809,
        49.205148314606745
      ],
      [
        132.26119887640448,
        49.05054157303371
      ],
      [
        131.9885179775281,
        48.89593483146068
      ],
      [
        131.71583707865167,
        48.741328089887645
      ],
      [
        131.4431561797753,
        48.58672134831461
      ],
      [
        131.17047528089887,
        48.43211460674158
      ],
      [
        130.89779438202248,
        48.277507865168545
      ],
      [
        130.62511348314607,
        48.12290112359551
      ],
      [
        130.35243258426965,
        47.96829438202248
      ],
      [
        130.07975168539326,
        47.813687640449444
      ],
      [
        129.80707078651685,
        47.65908089887641
      ],
      [
        129.53438988764043,
        47.50447415730337
      ],
      [
        129.26170898876404,
        47.349867415730344
      ],
      [
        128.98902808988763,
        47.1952606741573
      ],
      [
        128.71634719101124,
        47.04065393258427
      ],
      [
        128.44366629213482,
        46.88604719101124
      ],
      [
        128.17098539325843,
        46.7314404494382
      ],
      [
        127.89830449438202,
        46.57683370786517
      ],
      [
        127.62562359550562,
        46.422226966292136
      ],
      [
        127.35294269662921,
        46.2676202247191
      ],
      [
        127.0802617977528,
        46.11301348314607
      ],
      [
        126.8075808988764,
        45.958406741573036
      ],
      [
        126.5349,
        45.8038
      ],
      [
        126.29937674418603,
        45.6666
      ],
      [
        126.06385348837209,
        45.5294
      ],
      [
        125.82833023255813,
        45.3922
      ],
      [
        125.59280697674419,
        45.255
      ],
      [
        125.35728372093023,
        45.1178
      ],
      [
        125.12176046511627,
        44.9806
      ],
      [
        124.88623720930232,
        44.8434
      ],
      [
        124.65071395348836,
        44.7062
      ],
      [
        124.41519069767442,
        44.569
      ],
      [
        124.17966744186046,
        44.4318
      ],
      [
        123.9441441860465,
        44.2946
      ],
      [
        123.70862093023256,
        44.1574
      ],
      [
        123.4730976744186,
        44.0202
      ],
      [
        123.23757441860465,
        43.883
      ],
      [
        123.00205116279069,
        43.7458
      ],
      [
        122.76652790697673,
        43.6086
      ],
      [
        122.53100465116279,
        43.4714
      ],
      [
        122.29548139534883,
        43.3342
      ],
      [
        122.05995813953487,
        43.197
      ],
      [
        121.82443488372093,
        43.0598
      ],
      [
        121.58891162790697,
        42.9226
      ],
      [
        121.35338837209302,
        42.7854
      ],
      [
        121.11786511627906,
        42.6482
      ],
      [
        120.88234186046512,
        42.511
      ],
      [
        120.64681860465116,
        42.3738
      ],
      [
        120.4112953488372,
        42.2366
      ],
      [
        120.17577209302326,
        42.0994
      ],
      [
        119.9402488372093,
        41.9622
      ],
      [
        119.70472558139534,
        41.825
      ],
      [
        119.46920232558139,
        41.6878
      ],
      [
        119.23367906976743,
        41.5506
      ],
      [
        118.99815581395349,
        41.4134
      ],
      [
        118.76263255813953,
        41.2762
      ],
      [
        118.52710930232558,
        41.139
      ],
      [
        118.29158604651163,
        41.0018
      ],
      [
        118.05606279069767,
        40.8646
      ],
      [
        117.82053953488372,
        40.7274
      ],
      [
        117.58501627906976,
        40.5902
      ],
      [
        117.3494930232558,
        40.453
      ],
      [
        117.11396976744186,
        40.3158
      ],
      [
        116.8784465116279,
        40.1786
      ],
      [
        116.64292325581395,
        40.0414
      ],
      [
        116.4074,
        39.9042
      ],
      [
        116.20557297297297,
        39.75385945945946
      ],
      [
        116.00374594594594,
        39.60351891891892
      ],
      [
        115.80191891891891,
        39.45317837837838
      ],
      [
        115.60009189189189,
        39.30283783783784
      ],
      [
        115.39826486486486,
        39.1524972972973
      ],
      [
        115.19643783783783,
        39.00215675675676
      ],
      [
        114.99461081081081,
        38.85181621621622
      ],
      [
        114.79278378378378,
        38.70147567567568
      ],
      [
        114.59095675675675,
        38.55113513513514
      ],
      [
        114.38912972972973,
        38.40079459459459
      ],
      [
        114.1873027027027,
        38.25045405405405
      ],
      [
        113.98547567567567,
        38.10011351351351
      ],
      [
        113.78364864864865,
        37.94977297297297
      ],
      [
        113.58182162162161,
        37.79943243243243
      ],
      [
        113.37999459459459,
        37.64909189189189
      ],
      [
        113.17816756756757,
        37.49875135135135
      ],
      [
        112.97634054054053,
        37.34841081081081
      ],
      [
        112.77451351351351,
        37.19807027027027
      ],
      [
        112.57268648648649,
        37.04772972972973
      ],
      [
        112.37085945945947,
        36.89738918918919
      ],
      [
        112.16903243243243,
        36.74704864864865
      ],
      [
        111.96720540540541,
        36.59670810810811
      ],
      [
        111.76537837837839,
        36.44636756756757
      ],
      [
        111.56355135135135,
        36.29602702702703
      ],
      [
        111.36172432432433,
        36.14568648648649
      ],
      [
        111.1598972972973,
        35.99534594594595
      ],
      [
        110.95807027027027,
        35.8450054054054
      ],
      [
        110.75624324324325,
        35.69466486486486
      ],
      [
        110.55441621621623,
        35.54432432432432
      ],
      [
        110.35258918918919,
        35.39398378378378
      ],
      [
        110.15076216216217,
        35.24364324324324
      ],
      [
        109.94893513513514,
        35.0933027027027
      ],
      [
        109.74710810810811,
        34.94296216216216
      ],
      [
        109.54528108108109,
        34.79262162162162
      ],
      [
        109.34345405405406,
        34.64228108108108
      ],
      [
        109.14162702702703,
        34.49194054054054
      ],
      [
        108.9398,
        34.3416
      ],
      [
        108.74488000000001,
        34.190848
      ],
      [
        108.54996,
        34.040096
      ],
      [
        108.35504,
        33.889344
      ],
      [
        108.16012,
        33.738592
      ],
      [
        107.96520000000001,
        33.58784
      ],
      [
        107.77028,
        33.437088
      ],
      [
        107.57536,
        33.286336
      ],
      [
        107.38044000000001,
        33.135584
      ],
      [
        107.18552,
        32.984832
      ],
      [
        106.9906,
        32.83408
      ],
      [
        106.79568,
        32.683328
      ],
      [
        106.60076000000001,
        32.532576
      ],
      [
        106.40584,
        32.381824
      ],
      [
        106.21092,
        32.231072
      ],
      [
        106.016,
        32.08032
      ],
      [
        105.82108,
        31.929568
      ],
      [
        105.62616,
        31.778816
      ],
      [
        105.43124,
        31.628064000000002
      ],
      [
        105.23632,
        31.477312
      ],
      [
        105.0414,
        31.32656
      ],
      [
        104.84648,
        31.175808
      ],
      [
        104.65156,
        31.025056
      ],
      [
        104.45664000000001,
        30.874304000000002
      ],
      [
        104.26172,
        30.723552
      ],
      [
        104.0668,
        30.5728
      ],
      [
        103.92217407407408,
        30.39204814814815
      ],
      [
        103.77754814814814,
        30.211296296296297
      ],
      [
        103.63292222222222,
        30.030544444444445
      ],
      [
        103.4882962962963,
        29.849792592592593
      ],
      [
        103.34367037037038,
        29.66904074074074
      ],
      [
        103.19904444444444,
        29.48828888888889
      ],
      [
        103.05441851851852,
        29.307537037037036
      ],
      [
        102.9097925925926,
        29.126785185185184
      ],
      [
        102.76516666666667,
        28.946033333333332
      ],
      [
        102.62054074074074,
        28.76528148148148
      ],
      [
        102.47591481481481,
        28.58452962962963
      ],
      [
        102.33128888888889,
        28.403777777777776
      ],
      [
        102.18666296296297,
        28.223025925925924
      ],
      [
        102.04203703703703,
        28.042274074074072
      ],
      [
        101.89741111111111,
        27.86152222222222
      ],
      [
        101.75278518518519,
        27.68077037037037
      ],
      [
        101.60815925925927,
        27.50001851851852
      ],
      [
        101.46353333333333,
        27.319266666666667
      ],
      [
        101.31890740740741,
        27.138514814814815
      ],
      [
        101.17428148148149,
        26.957762962962963
      ],
      [
        101.02965555555556,
        26.77701111111111
      ],
      [
        100.88502962962963,
        26.59625925925926
      ],
      [
        100.7404037037037,
        26.415507407407407
      ],
      [
        100.59577777777778,
        26.234755555555555
      ],
      [
        100.45115185185186,
        26.054003703703703
      ],
      [
        100.30652592592592,
        25.87325185185185
      ],
      [
        100.1619,
        25.6925
      ]
    ]
  }
}